{
  "type": "Feature",
  "properties": {
    "id": "bursaray-m1",
    "hat_no": 1531,
    "name": "BursaRay M1 (Emek — Arabayatağı)",
    "mode": "metro",
    "avg_speed_kmh": 33,
    "direction_labels": {
      "forward": "Arabayatağı yönü",
      "backward": "Emek yönü"
    },
    "source": "Burulaş API (hatNo=1531), çekildi 2026-09-01; yeraltı bilgisi tr.wikipedia \"BursaRay istasyonları listesi\"",
    "tunnel_zones": [
      [
        40.250617,
        28.957317,
        380
      ]
    ],
    "tunnel_zone_refs": [
      "bursaray-acemler",
      "bursaray-merkez"
    ],
    "_tunnel_note": "M1'e özel yeraltı: Korupark. Ortak (Acemler + merkez tüneli) data/tunnel_zones.json'dan. Toplam ~5.0 km / 17.6 km (~28%), 6/20 istasyon yeraltı ile tutarlı. Kaynak: tr.wikipedia.",
    "stops": [
      "Emek",
      "Korupark",
      "Organize Sanayi",
      "Hamitler / Fethiye",
      "Bağlarbaşı / Esentepe",
      "İhsaniye",
      "Karaman / Hürriyet",
      "Bursaspor / Acemler",
      "Paşaçiftliği",
      "Sırameşeler / Kükürtlü",
      "Kültürpark",
      "Merinos",
      "Osmangazi",
      "Şehreküstü",
      "Demirtaşpaşa / Abdal",
      "Gökdere",
      "Yıldırım / Davutdede",
      "Duaçınarı",
      "152 Evler",
      "Arabayatağı / Yavuz Selim"
    ],
    "stop_coords": [
      [
        28.952617,
        40.257067
      ],
      [
        28.957317,
        40.250617
      ],
      [
        28.966977,
        40.243448
      ],
      [
        28.975529,
        40.237001
      ],
      [
        28.986498,
        40.229194
      ],
      [
        28.993935,
        40.223111
      ],
      [
        29.000583,
        40.216601
      ],
      [
        29.014883,
        40.213033
      ],
      [
        29.025167,
        40.209567
      ],
      [
        29.029783,
        40.205283
      ],
      [
        29.0407,
        40.200333
      ],
      [
        29.0494,
        40.197633
      ],
      [
        29.056383,
        40.196117
      ],
      [
        29.062583,
        40.1886
      ],
      [
        29.069,
        40.187333
      ],
      [
        29.07825,
        40.188267
      ],
      [
        29.087467,
        40.191667
      ],
      [
        29.0992,
        40.191617
      ],
      [
        29.106517,
        40.191583
      ],
      [
        29.116967,
        40.1916
      ]
    ]
  },
  "geometry": {
    "type": "LineString",
    "coordinates": [
      [
        28.952617,
        40.257067
      ],
      [
        28.954173,
        40.253973
      ],
      [
        28.955595,
        40.25218
      ],
      [
        28.957317,
        40.250617
      ],
      [
        28.957317,
        40.250617
      ],
      [
        28.966977,
        40.243448
      ],
      [
        28.966977,
        40.243448
      ],
      [
        28.975529,
        40.237001
      ],
      [
        28.975529,
        40.237001
      ],
      [
        28.986498,
        40.229194
      ],
      [
        28.986498,
        40.229194
      ],
      [
        28.988518,
        40.227796
      ],
      [
        28.99041,
        40.226316
      ],
      [
        28.992194,
        40.224722
      ],
      [
        28.993935,
        40.223111
      ],
      [
        28.993935,
        40.223111
      ],
      [
        29.000583,
        40.216601
      ],
      [
        29.000583,
        40.216601
      ],
      [
        29.002442,
        40.21466
      ],
      [
        29.003435,
        40.213551
      ],
      [
        29.003996,
        40.213045
      ],
      [
        29.004558,
        40.212785
      ],
      [
        29.005098,
        40.212698
      ],
      [
        29.005725,
        40.212677
      ],
      [
        29.007021,
        40.212765
      ],
      [
        29.009699,
        40.212844
      ],
      [
        29.014883,
        40.213033
      ],
      [
        29.014883,
        40.213033
      ],
      [
        29.017551,
        40.212724
      ],
      [
        29.020089,
        40.21225
      ],
      [
        29.022778,
        40.211171
      ],
      [
        29.02408,
        40.210401
      ],
      [
        29.025167,
        40.209567
      ],
      [
        29.025167,
        40.209567
      ],
      [
        29.029783,
        40.205283
      ],
      [
        29.029783,
        40.205283
      ],
      [
        29.031762,
        40.204152
      ],
      [
        29.033868,
        40.203054
      ],
      [
        29.035287,
        40.202128
      ],
      [
        29.036962,
        40.2013
      ],
      [
        29.03881,
        40.200735
      ],
      [
        29.0407,
        40.200333
      ],
      [
        29.0407,
        40.200333
      ],
      [
        29.045265,
        40.199229
      ],
      [
        29.047332,
        40.198464
      ],
      [
        29.0494,
        40.197633
      ],
      [
        29.0494,
        40.197633
      ],
      [
        29.056383,
        40.196117
      ],
      [
        29.056383,
        40.196117
      ],
      [
        29.058269,
        40.195677
      ],
      [
        29.059296,
        40.195172
      ],
      [
        29.059713,
        40.194567
      ],
      [
        29.060044,
        40.193896
      ],
      [
        29.060234,
        40.19249
      ],
      [
        29.060572,
        40.190364
      ],
      [
        29.061041,
        40.189253
      ],
      [
        29.06125,
        40.188983
      ],
      [
        29.06163,
        40.188812
      ],
      [
        29.062583,
        40.1886
      ],
      [
        29.062583,
        40.1886
      ],
      [
        29.069,
        40.187333
      ],
      [
        29.069,
        40.187333
      ],
      [
        29.073711,
        40.187423
      ],
      [
        29.076839,
        40.187599
      ],
      [
        29.077673,
        40.187851
      ],
      [
        29.07825,
        40.188267
      ],
      [
        29.07825,
        40.188267
      ],
      [
        29.081013,
        40.191081
      ],
      [
        29.081455,
        40.191396
      ],
      [
        29.082026,
        40.19158
      ],
      [
        29.082768,
        40.191616
      ],
      [
        29.08351,
        40.19162
      ],
      [
        29.087467,
        40.191667
      ],
      [
        29.087467,
        40.191667
      ],
      [
        29.0992,
        40.191617
      ],
      [
        29.0992,
        40.191617
      ],
      [
        29.106517,
        40.191583
      ],
      [
        29.106517,
        40.191583
      ],
      [
        29.116967,
        40.1916
      ],
      [
        29.116967,
        40.1916
      ]
    ]
  }
}