{
  "type": "Feature",
  "properties": {
    "id": "bursaray-t1",
    "name": "BursaRay T1 (Emek — Kestel)",
    "mode": "metro",
    "avg_speed_kmh": 32,
    "direction_labels": { "forward": "Kestel yönü", "backward": "Emek yönü" },
    "tunnel_zones": [
      [40.1985, 29.0325, 1200],
      [40.1885, 29.0525, 1200]
    ],
    "_tunnel_note": "Şehreküstü–Demirtaşpaşa yeraltı bölümü (lat, lon, yarıçap_m)",
    "source": "YAKLAŞIK / SENTETİK koordinatlar — PoC için. Gerçek veri Burulaş'tan çekilecek.",
    "stops": [
      "Emek", "Kültürpark", "Sırameşeler", "Şehreküstü",
      "Osmangazi", "Demirtaşpaşa", "Stadyum", "Otosansit",
      "Gökdere", "Organize Sanayi", "Kestel"
    ]
  },
  "geometry": {
    "type": "LineString",
    "coordinates": [
      [28.9450, 40.2280],
      [28.9750, 40.2230],
      [29.0000, 40.2150],
      [29.0200, 40.2050],
      [29.0450, 40.1920],
      [29.0600, 40.1850],
      [29.0800, 40.1830],
      [29.1000, 40.1850],
      [29.1200, 40.1900],
      [29.1500, 40.1900],
      [29.1800, 40.1850]
    ]
  }
}
