{
  "type": "Feature",
  "properties": {
    "id": "bursaray-m2",
    "name": "BursaRay M2 (Üniversite — Kestel)",
    "mode": "metro",
    "avg_speed_kmh": 34,
    "direction_labels": {
      "forward": "Kestel yönü",
      "backward": "Üniversite yönü"
    },
    "source": "Burulaş API (hatNo=1519), çekildi 2026-09-01; yeraltı bilgisi tr.wikipedia \"BursaRay istasyonları listesi\"",
    "tunnel_zones": [
      [
        40.220267,
        28.899883,
        380
      ],
      [
        40.212465,
        28.999158,
        400
      ],
      [
        40.2127,
        29.0071,
        500
      ]
    ],
    "tunnel_zone_refs": [
      "bursaray-acemler",
      "bursaray-merkez"
    ],
    "_tunnel_note": "M2'ye özel yeraltı: Yüzüncüyıl; Odunluk (Odunluk–Acemler arası sürekli varsayıldı). Ortak (Acemler + merkez tüneli) data/tunnel_zones.json'dan. Toplam ~6.3 km / 31 km (~20%), 7/32 istasyon yeraltı ile tutarlı.",
    "stops": [
      "Üniversite",
      "Batıkent / 19 Mayıs",
      "Yüzüncüyıl",
      "Özlüce / 29 Ekim",
      "Ertuğrul Dörtçelik Çocuk Hastanesi",
      "Altınşehir",
      "Küçük Sanayi",
      "Ataevler / 23 Nisan",
      "Beşevler / Barış",
      "Fatih Sultan Mehmet",
      "Nilüfer",
      "Odunluk",
      "Bursaspor / Acemler",
      "Paşaçiftliği",
      "Sırameşeler / Kükürtlü",
      "Kültürpark",
      "Merinos",
      "Osmangazi",
      "Şehreküstü",
      "Demirtaşpaşa / Abdal",
      "Gökdere",
      "Yıldırım / Davutdede",
      "Duaçınarı",
      "Yüksek İhtisas",
      "Arabayatağı / Yavuz Selim",
      "Bursa Teknik Üniversitesi / Mimar Sinan",
      "Hacivat / Esenevler",
      "Şirinevler / Yiğitler",
      "Otosansit",
      "Cumalıkızık / Değirmenönü",
      "Gürsu",
      "Kestel"
    ]
  },
  "geometry": {
    "type": "LineString",
    "coordinates": [
      [
        28.870083,
        40.218183
      ],
      [
        28.870083,
        40.218183
      ],
      [
        28.875399,
        40.218025
      ],
      [
        28.876896,
        40.217945
      ],
      [
        28.87765,
        40.217895
      ],
      [
        28.878393,
        40.217935
      ],
      [
        28.879045,
        40.218004
      ],
      [
        28.879659,
        40.218163
      ],
      [
        28.880851,
        40.218645
      ],
      [
        28.886019,
        40.219611
      ],
      [
        28.89124,
        40.22038
      ],
      [
        28.89125,
        40.2205
      ],
      [
        28.89125,
        40.2205
      ],
      [
        28.89124,
        40.22038
      ],
      [
        28.899883,
        40.220267
      ],
      [
        28.899883,
        40.220267
      ],
      [
        28.90618,
        40.22027
      ],
      [
        28.90797,
        40.22023
      ],
      [
        28.91135,
        40.219933
      ],
      [
        28.91135,
        40.219933
      ],
      [
        28.92197,
        40.21922
      ],
      [
        28.922,
        40.21945
      ],
      [
        28.922,
        40.21945
      ],
      [
        28.92197,
        40.21922
      ],
      [
        28.92212,
        40.2192
      ],
      [
        28.92583,
        40.21891
      ],
      [
        28.927271,
        40.218561
      ],
      [
        28.928471,
        40.218105
      ],
      [
        28.930991,
        40.216636
      ],
      [
        28.932095,
        40.21619
      ],
      [
        28.933124,
        40.215613
      ],
      [
        28.93389,
        40.2148
      ],
      [
        28.934117,
        40.214867
      ],
      [
        28.934117,
        40.214867
      ],
      [
        28.93389,
        40.2148
      ],
      [
        28.934326,
        40.214153
      ],
      [
        28.935026,
        40.213449
      ],
      [
        28.937083,
        40.212487
      ],
      [
        28.93973,
        40.21206
      ],
      [
        28.94161,
        40.21212
      ],
      [
        28.941617,
        40.212067
      ],
      [
        28.941617,
        40.212067
      ],
      [
        28.94161,
        40.21215
      ],
      [
        28.94316,
        40.21223
      ],
      [
        28.94478,
        40.21228
      ],
      [
        28.94563,
        40.21233
      ],
      [
        28.94986,
        40.21268
      ],
      [
        28.949917,
        40.212633
      ],
      [
        28.949917,
        40.212633
      ],
      [
        28.94991,
        40.21268
      ],
      [
        28.95207,
        40.21283
      ],
      [
        28.95292,
        40.21292
      ],
      [
        28.95641,
        40.21316
      ],
      [
        28.95946,
        40.21338
      ],
      [
        28.9604,
        40.21345
      ],
      [
        28.96133,
        40.21349
      ],
      [
        28.96217,
        40.21349
      ],
      [
        28.96381,
        40.21344
      ],
      [
        28.9646,
        40.21338
      ],
      [
        28.96541,
        40.21328
      ],
      [
        28.96623,
        40.21315
      ],
      [
        28.9662,
        40.21305
      ],
      [
        28.9662,
        40.21305
      ],
      [
        28.96623,
        40.21315
      ],
      [
        28.96989,
        40.21251
      ],
      [
        28.97172,
        40.21218
      ],
      [
        28.97305,
        40.212
      ],
      [
        28.97503,
        40.21169
      ],
      [
        28.97555,
        40.21164
      ],
      [
        28.975533,
        40.211567
      ],
      [
        28.975533,
        40.211567
      ],
      [
        28.97555,
        40.21164
      ],
      [
        28.9765,
        40.21154
      ],
      [
        28.97756,
        40.21148
      ],
      [
        28.97921,
        40.21144
      ],
      [
        28.98036,
        40.21149
      ],
      [
        28.98548,
        40.2118
      ],
      [
        28.98819,
        40.212
      ],
      [
        28.9882,
        40.211917
      ],
      [
        28.9882,
        40.211917
      ],
      [
        28.999158,
        40.212465
      ],
      [
        28.999158,
        40.212465
      ],
      [
        29.014883,
        40.213033
      ],
      [
        29.014883,
        40.213033
      ],
      [
        29.016403,
        40.212978
      ],
      [
        29.017751,
        40.212793
      ],
      [
        29.020061,
        40.212158
      ],
      [
        29.022192,
        40.211349
      ],
      [
        29.023722,
        40.21054
      ],
      [
        29.025167,
        40.209567
      ],
      [
        29.025167,
        40.209567
      ],
      [
        29.029783,
        40.205283
      ],
      [
        29.029783,
        40.205283
      ],
      [
        29.02988,
        40.20537
      ],
      [
        29.03005,
        40.20525
      ],
      [
        29.0306,
        40.20491
      ],
      [
        29.03188,
        40.20426
      ],
      [
        29.0331,
        40.20364
      ],
      [
        29.03351,
        40.20344
      ],
      [
        29.03408,
        40.20308
      ],
      [
        29.03516,
        40.20233
      ],
      [
        29.03565,
        40.20205
      ],
      [
        29.03647,
        40.20162
      ],
      [
        29.03709,
        40.20134
      ],
      [
        29.03765,
        40.20115
      ],
      [
        29.0384,
        40.20094
      ],
      [
        29.03943,
        40.20072
      ],
      [
        29.04073,
        40.20041
      ],
      [
        29.0407,
        40.200333
      ],
      [
        29.0407,
        40.200333
      ],
      [
        29.04073,
        40.20041
      ],
      [
        29.04334,
        40.19979
      ],
      [
        29.04506,
        40.19939
      ],
      [
        29.04601,
        40.19908
      ],
      [
        29.04767,
        40.19848
      ],
      [
        29.04951,
        40.19778
      ],
      [
        29.0494,
        40.197633
      ],
      [
        29.0494,
        40.197633
      ],
      [
        29.056383,
        40.196117
      ],
      [
        29.056383,
        40.196117
      ],
      [
        29.05806,
        40.195771
      ],
      [
        29.059026,
        40.195566
      ],
      [
        29.059424,
        40.195479
      ],
      [
        29.05965,
        40.195295
      ],
      [
        29.06032,
        40.192604
      ],
      [
        29.060711,
        40.189963
      ],
      [
        29.060853,
        40.189306
      ],
      [
        29.061053,
        40.188969
      ],
      [
        29.061205,
        40.188758
      ],
      [
        29.0617,
        40.188711
      ],
      [
        29.062583,
        40.1886
      ],
      [
        29.062583,
        40.1886
      ],
      [
        29.0626,
        40.18864
      ],
      [
        29.064,
        40.18833
      ],
      [
        29.06531,
        40.18803
      ],
      [
        29.06631,
        40.1878
      ],
      [
        29.06696,
        40.18765
      ],
      [
        29.06781,
        40.18742
      ],
      [
        29.06836,
        40.18736
      ],
      [
        29.06899,
        40.18735
      ],
      [
        29.069,
        40.187333
      ],
      [
        29.069,
        40.187333
      ],
      [
        29.069,
        40.18735
      ],
      [
        29.07085,
        40.18737
      ],
      [
        29.07279,
        40.18747
      ],
      [
        29.07334,
        40.18756
      ],
      [
        29.07358,
        40.18758
      ],
      [
        29.07389,
        40.18757
      ],
      [
        29.07455,
        40.18754
      ],
      [
        29.0751,
        40.18755
      ],
      [
        29.07657,
        40.18764
      ],
      [
        29.07707,
        40.18777
      ],
      [
        29.07763,
        40.18795
      ],
      [
        29.07791,
        40.18812
      ],
      [
        29.07813,
        40.18834
      ],
      [
        29.07825,
        40.188267
      ],
      [
        29.07825,
        40.188267
      ],
      [
        29.081155,
        40.191141
      ],
      [
        29.081706,
        40.191431
      ],
      [
        29.082472,
        40.191524
      ],
      [
        29.087467,
        40.191667
      ],
      [
        29.087467,
        40.191667
      ],
      [
        29.08747,
        40.19176
      ],
      [
        29.09343,
        40.1917
      ],
      [
        29.09571,
        40.19169
      ],
      [
        29.09916,
        40.1917
      ],
      [
        29.0992,
        40.191617
      ],
      [
        29.0992,
        40.191617
      ],
      [
        29.0992,
        40.1917
      ],
      [
        29.10099,
        40.19168
      ],
      [
        29.10406,
        40.19164
      ],
      [
        29.10652,
        40.19167
      ],
      [
        29.106517,
        40.191583
      ],
      [
        29.106517,
        40.191583
      ],
      [
        29.10652,
        40.19167
      ],
      [
        29.10835,
        40.19164
      ],
      [
        29.10984,
        40.19163
      ],
      [
        29.11102,
        40.19164
      ],
      [
        29.11417,
        40.19163
      ],
      [
        29.11522,
        40.19167
      ],
      [
        29.11697,
        40.19167
      ],
      [
        29.116967,
        40.1916
      ],
      [
        29.116967,
        40.1916
      ],
      [
        29.11697,
        40.19167
      ],
      [
        29.1179,
        40.19167
      ],
      [
        29.11914,
        40.19166
      ],
      [
        29.12163,
        40.19167
      ],
      [
        29.12237,
        40.19166
      ],
      [
        29.12473,
        40.19164
      ],
      [
        29.12713,
        40.19163
      ],
      [
        29.12754,
        40.19165
      ],
      [
        29.12962,
        40.19166
      ],
      [
        29.13056,
        40.19169
      ],
      [
        29.1322,
        40.1917
      ],
      [
        29.132197,
        40.191586
      ],
      [
        29.132197,
        40.191586
      ],
      [
        29.1322,
        40.1917
      ],
      [
        29.13369,
        40.1917
      ],
      [
        29.13543,
        40.19168
      ],
      [
        29.13672,
        40.1917
      ],
      [
        29.13743,
        40.19173
      ],
      [
        29.1391,
        40.19188
      ],
      [
        29.13966,
        40.19196
      ],
      [
        29.14151,
        40.1923
      ],
      [
        29.141538,
        40.192216
      ],
      [
        29.141538,
        40.192216
      ],
      [
        29.14151,
        40.1923
      ],
      [
        29.14334,
        40.19261
      ],
      [
        29.14726,
        40.1933
      ],
      [
        29.14938,
        40.19369
      ],
      [
        29.1507,
        40.19388
      ],
      [
        29.15243,
        40.19418
      ],
      [
        29.15348,
        40.19439
      ],
      [
        29.15493,
        40.19468
      ],
      [
        29.15496,
        40.194579
      ],
      [
        29.15496,
        40.194579
      ],
      [
        29.15493,
        40.19468
      ],
      [
        29.15542,
        40.19477
      ],
      [
        29.15586,
        40.19485
      ],
      [
        29.15702,
        40.19502
      ],
      [
        29.15872,
        40.19531
      ],
      [
        29.16086,
        40.19567
      ],
      [
        29.16404,
        40.19622
      ],
      [
        29.16731,
        40.19682
      ],
      [
        29.167343,
        40.196715
      ],
      [
        29.167343,
        40.196715
      ],
      [
        29.16731,
        40.19682
      ],
      [
        29.16918,
        40.19717
      ],
      [
        29.17129,
        40.19751
      ],
      [
        29.17239,
        40.19765
      ],
      [
        29.17302,
        40.19775
      ],
      [
        29.17485,
        40.19797
      ],
      [
        29.174865,
        40.19789
      ],
      [
        29.174865,
        40.19789
      ],
      [
        29.17485,
        40.19797
      ],
      [
        29.17588,
        40.19812
      ],
      [
        29.17858,
        40.19842
      ],
      [
        29.18294,
        40.19897
      ],
      [
        29.18425,
        40.19912
      ],
      [
        29.18701,
        40.19945
      ],
      [
        29.18767,
        40.19949
      ],
      [
        29.18865,
        40.1995
      ],
      [
        29.18946,
        40.19944
      ],
      [
        29.1905,
        40.19933
      ],
      [
        29.190488,
        40.199261
      ],
      [
        29.190488,
        40.199261
      ],
      [
        29.1905,
        40.19933
      ],
      [
        29.19105,
        40.19927
      ],
      [
        29.19283,
        40.19906
      ],
      [
        29.19466,
        40.19887
      ],
      [
        29.19694,
        40.19868
      ],
      [
        29.19769,
        40.19866
      ],
      [
        29.19857,
        40.19869
      ],
      [
        29.19981,
        40.19885
      ],
      [
        29.20011,
        40.19889
      ],
      [
        29.20019,
        40.19895
      ],
      [
        29.20028,
        40.19897
      ],
      [
        29.20038,
        40.19897
      ],
      [
        29.20045,
        40.19895
      ],
      [
        29.20137,
        40.19925
      ],
      [
        29.20228,
        40.1996
      ],
      [
        29.20298,
        40.19995
      ],
      [
        29.20367,
        40.20036
      ],
      [
        29.20388,
        40.20048
      ],
      [
        29.2041,
        40.20057
      ],
      [
        29.20685,
        40.20272
      ],
      [
        29.206966,
        40.202631
      ]
    ]
  }
}