{
  "type": "Feature",
  "properties": {
    "id": "bus-4g",
    "hat_no": 1121,
    "name": "4G — Üniversite / Görükle",
    "mode": "bus",
    "avg_speed_kmh": 20,
    "direction_labels": {
      "forward": "Görükle yönü",
      "backward": "Üniversite yönü"
    },
    "loop_split": 264,
    "tunnel_zones": [],
    "source": "Burulaş API (hatNo=1121), çekildi 2026-09-01. Kapalı halka (kampüs–Görükle çevirici); loop_split Görükle ucu.",
    "stops": [
      "Uludağ Üniversitesi İÇ",
      "U.Ü. Tıp Fakültesi",
      "Tıp Fakültesi Acil",
      "Kültür Merkezi",
      "Uludağ Üniversitesi",
      "U.Ü. Kütüphanesi",
      "Veterinerlik Fakültesi",
      "U.Ü. Yurtkur Öğrenci Yurdu",
      "Uludağ ÜNİV. Anaokulu",
      "U.Ü. Fen Edebiyat Fakültesi",
      "Spor Bilimleri Fakültesi",
      "U.Ü. Ziraat Fakültesi",
      "U.Ü. Güzel Sanatlar Fakültesi",
      "Besaş Arge",
      "Uludağ ÜNİV. Görükle Girişi",
      "Bahriye Üçok CD.",
      "Üçoluk CD.",
      "Kızılırmak CD.",
      "Tüter CD.",
      "Çağdaş CD.",
      "Fevzi Çakmak CD. 8",
      "Fevzi Çakmak CD. 6",
      "Zafer CD. 12",
      "Zafer CD. 11",
      "Taşpınar CD.",
      "Görükle Mezarlığı",
      "Atatürk CD. 7",
      "Atatürk CD. 4",
      "Üçoluk CD.",
      "Bahriye Üçok CD.",
      "Besaş Arge",
      "U.Ü. Güzel Sanatlar Fakültesi",
      "U.Ü. Ziraat Fakültesi",
      "Spor Bilimleri Fakültesi",
      "U.Ü. Fen Edebiyat Fakültesi",
      "Uludağ ÜNİV. Anaokulu",
      "U.Ü. Yurtkur Öğrenci Yurdu",
      "Veterinerlik Fakültesi",
      "U.Ü. Kütüphanesi",
      "U.Ü. Mediko Sosyal",
      "Kültür Merkezi",
      "U.Ü. Rektörlük",
      "U.Ü. Tıp Fakültesi",
      "Üniversite İstasyonu"
    ]
  },
  "geometry": {
    "type": "LineString",
    "coordinates": [
      [
        28.868971,
        40.21843
      ],
      [
        28.869034,
        40.21843
      ],
      [
        28.869245,
        40.218469
      ],
      [
        28.869556,
        40.218564
      ],
      [
        28.86962,
        40.21854
      ],
      [
        28.8697,
        40.21852
      ],
      [
        28.86984,
        40.21851
      ],
      [
        28.86998,
        40.21845
      ],
      [
        28.87015,
        40.21848
      ],
      [
        28.87021,
        40.21852
      ],
      [
        28.87025,
        40.21857
      ],
      [
        28.87027,
        40.21864
      ],
      [
        28.87025,
        40.2187
      ],
      [
        28.87017,
        40.21879
      ],
      [
        28.87009,
        40.21882
      ],
      [
        28.87003,
        40.21883
      ],
      [
        28.86975,
        40.21912
      ],
      [
        28.86965,
        40.21923
      ],
      [
        28.86965,
        40.21925
      ],
      [
        28.86964,
        40.21928
      ],
      [
        28.86961,
        40.21931
      ],
      [
        28.86956,
        40.21933
      ],
      [
        28.86955,
        40.21934
      ],
      [
        28.86926,
        40.21965
      ],
      [
        28.86931,
        40.21968
      ],
      [
        28.86931,
        40.21968
      ],
      [
        28.86926,
        40.21965
      ],
      [
        28.86857,
        40.22044
      ],
      [
        28.86756,
        40.22159
      ],
      [
        28.86765,
        40.22158
      ],
      [
        28.86775,
        40.22158
      ],
      [
        28.86776,
        40.221529
      ],
      [
        28.86776,
        40.221529
      ],
      [
        28.86775,
        40.22158
      ],
      [
        28.8676,
        40.22158
      ],
      [
        28.86756,
        40.22159
      ],
      [
        28.8673,
        40.22188
      ],
      [
        28.86722,
        40.222
      ],
      [
        28.8672,
        40.22209
      ],
      [
        28.86719,
        40.22212
      ],
      [
        28.86722,
        40.22229
      ],
      [
        28.86728,
        40.22242
      ],
      [
        28.868,
        40.22287
      ],
      [
        28.86832,
        40.22304
      ],
      [
        28.86845,
        40.22311
      ],
      [
        28.86847,
        40.223089
      ],
      [
        28.86847,
        40.223089
      ],
      [
        28.86845,
        40.22311
      ],
      [
        28.86928,
        40.22356
      ],
      [
        28.86993,
        40.22393
      ],
      [
        28.87029,
        40.2241
      ],
      [
        28.87041,
        40.22413
      ],
      [
        28.87093,
        40.22408
      ],
      [
        28.87093,
        40.22406
      ],
      [
        28.87093,
        40.22406
      ],
      [
        28.87093,
        40.22408
      ],
      [
        28.87358,
        40.22375
      ],
      [
        28.8737,
        40.22371
      ],
      [
        28.87377,
        40.22372
      ],
      [
        28.8738,
        40.22373
      ],
      [
        28.87391,
        40.22382
      ],
      [
        28.87393,
        40.2239
      ],
      [
        28.87391,
        40.22398
      ],
      [
        28.87367,
        40.22428
      ],
      [
        28.87316,
        40.22488
      ],
      [
        28.87284,
        40.22531
      ],
      [
        28.872882,
        40.225332
      ],
      [
        28.872882,
        40.225332
      ],
      [
        28.87284,
        40.22531
      ],
      [
        28.87232,
        40.22595
      ],
      [
        28.87218,
        40.22614
      ],
      [
        28.87215,
        40.22622
      ],
      [
        28.87215,
        40.22637
      ],
      [
        28.87227,
        40.22725
      ],
      [
        28.87229,
        40.22738
      ],
      [
        28.87234,
        40.22738
      ],
      [
        28.87234,
        40.22738
      ],
      [
        28.87229,
        40.22738
      ],
      [
        28.87264,
        40.2295
      ],
      [
        28.87267,
        40.22987
      ],
      [
        28.87216,
        40.2298
      ],
      [
        28.87183,
        40.22954
      ],
      [
        28.871869,
        40.229508
      ],
      [
        28.871869,
        40.229508
      ],
      [
        28.87183,
        40.22954
      ],
      [
        28.87108,
        40.22896
      ],
      [
        28.87088,
        40.22874
      ],
      [
        28.87082,
        40.22853
      ],
      [
        28.87065,
        40.2277
      ],
      [
        28.87069,
        40.2268
      ],
      [
        28.87074,
        40.2264
      ],
      [
        28.87006,
        40.22602
      ],
      [
        28.86903,
        40.22547
      ],
      [
        28.869004,
        40.2255
      ],
      [
        28.869004,
        40.2255
      ],
      [
        28.86903,
        40.22547
      ],
      [
        28.86683,
        40.22424
      ],
      [
        28.866797,
        40.224271
      ],
      [
        28.866797,
        40.224271
      ],
      [
        28.86683,
        40.22424
      ],
      [
        28.86423,
        40.22277
      ],
      [
        28.864167,
        40.222836
      ],
      [
        28.864177,
        40.222814
      ],
      [
        28.86423,
        40.22276
      ],
      [
        28.86318,
        40.22218
      ],
      [
        28.86291,
        40.22211
      ],
      [
        28.86243,
        40.22213
      ],
      [
        28.86232,
        40.22216
      ],
      [
        28.8623,
        40.22217
      ],
      [
        28.862329,
        40.222196
      ],
      [
        28.862329,
        40.222196
      ],
      [
        28.8623,
        40.22217
      ],
      [
        28.86221,
        40.22222
      ],
      [
        28.86223,
        40.22249
      ],
      [
        28.86225,
        40.22274
      ],
      [
        28.86232,
        40.22373
      ],
      [
        28.86229,
        40.22386
      ],
      [
        28.86227,
        40.224
      ],
      [
        28.86216,
        40.22421
      ],
      [
        28.86208,
        40.22438
      ],
      [
        28.86207,
        40.22453
      ],
      [
        28.86211,
        40.22467
      ],
      [
        28.8624,
        40.22522
      ],
      [
        28.86247,
        40.22534
      ],
      [
        28.86262,
        40.22571
      ],
      [
        28.86276,
        40.22601
      ],
      [
        28.86284,
        40.22599
      ],
      [
        28.86284,
        40.22599
      ],
      [
        28.86274,
        40.22601
      ],
      [
        28.86283,
        40.22625
      ],
      [
        28.86305,
        40.22692
      ],
      [
        28.86307,
        40.22712
      ],
      [
        28.86306,
        40.22743
      ],
      [
        28.863,
        40.22788
      ],
      [
        28.86221,
        40.22764
      ],
      [
        28.8621,
        40.22762
      ],
      [
        28.8621,
        40.22765
      ],
      [
        28.862071,
        40.227654
      ],
      [
        28.862071,
        40.227654
      ],
      [
        28.8621,
        40.22765
      ],
      [
        28.8621,
        40.22762
      ],
      [
        28.8602,
        40.22715
      ],
      [
        28.8598,
        40.22711
      ],
      [
        28.85958,
        40.22713
      ],
      [
        28.85936,
        40.22721
      ],
      [
        28.85921,
        40.2273
      ],
      [
        28.85911,
        40.2274
      ],
      [
        28.85902,
        40.22752
      ],
      [
        28.85891,
        40.22781
      ],
      [
        28.85883,
        40.22806
      ],
      [
        28.85879,
        40.22812
      ],
      [
        28.85874,
        40.22817
      ],
      [
        28.8587,
        40.2282
      ],
      [
        28.85886,
        40.2283
      ],
      [
        28.858952,
        40.228213
      ],
      [
        28.858952,
        40.228213
      ],
      [
        28.85886,
        40.2283
      ],
      [
        28.8587,
        40.2282
      ],
      [
        28.85862,
        40.22822
      ],
      [
        28.85851,
        40.22825
      ],
      [
        28.85842,
        40.22827
      ],
      [
        28.85686,
        40.22838
      ],
      [
        28.85535,
        40.22854
      ],
      [
        28.85536,
        40.22857
      ],
      [
        28.85536,
        40.22857
      ],
      [
        28.85535,
        40.22854
      ],
      [
        28.85454,
        40.22864
      ],
      [
        28.85414,
        40.22871
      ],
      [
        28.85369,
        40.22879
      ],
      [
        28.85345,
        40.22886
      ],
      [
        28.85318,
        40.22895
      ],
      [
        28.85226,
        40.22902
      ],
      [
        28.85227,
        40.22907
      ],
      [
        28.85227,
        40.22907
      ],
      [
        28.85226,
        40.22902
      ],
      [
        28.85173,
        40.22906
      ],
      [
        28.84978,
        40.22906
      ],
      [
        28.84842,
        40.22907
      ],
      [
        28.84843,
        40.22882
      ],
      [
        28.84842,
        40.22861
      ],
      [
        28.848394,
        40.228614
      ],
      [
        28.848394,
        40.228614
      ],
      [
        28.84842,
        40.22861
      ],
      [
        28.84838,
        40.22729
      ],
      [
        28.84836,
        40.22596
      ],
      [
        28.84828,
        40.22568
      ],
      [
        28.84818,
        40.22555
      ],
      [
        28.84801,
        40.22539
      ],
      [
        28.847982,
        40.22541
      ],
      [
        28.847982,
        40.22541
      ],
      [
        28.84801,
        40.22539
      ],
      [
        28.84789,
        40.22528
      ],
      [
        28.84732,
        40.22466
      ],
      [
        28.8469,
        40.2242
      ],
      [
        28.84648,
        40.22371
      ],
      [
        28.84607,
        40.22332
      ],
      [
        28.846046,
        40.223335
      ],
      [
        28.846046,
        40.223335
      ],
      [
        28.84607,
        40.22332
      ],
      [
        28.84543,
        40.2227
      ],
      [
        28.84535,
        40.22266
      ],
      [
        28.84418,
        40.22205
      ],
      [
        28.84413,
        40.22209
      ],
      [
        28.844123,
        40.222083
      ],
      [
        28.844123,
        40.222083
      ],
      [
        28.84413,
        40.22209
      ],
      [
        28.84418,
        40.22205
      ],
      [
        28.84401,
        40.22197
      ],
      [
        28.84326,
        40.22181
      ],
      [
        28.84225,
        40.22163
      ],
      [
        28.84161,
        40.22154
      ],
      [
        28.841592,
        40.2216
      ],
      [
        28.841592,
        40.2216
      ],
      [
        28.84161,
        40.22154
      ],
      [
        28.83998,
        40.2213
      ],
      [
        28.83906,
        40.2215
      ],
      [
        28.839075,
        40.22154
      ],
      [
        28.839075,
        40.22154
      ],
      [
        28.839,
        40.22151
      ],
      [
        28.83631,
        40.22225
      ],
      [
        28.83611,
        40.22235
      ],
      [
        28.83594,
        40.22248
      ],
      [
        28.836006,
        40.222525
      ],
      [
        28.836006,
        40.222525
      ],
      [
        28.83594,
        40.22248
      ],
      [
        28.83539,
        40.22292
      ],
      [
        28.83526,
        40.22304
      ],
      [
        28.83519,
        40.2231
      ],
      [
        28.83513,
        40.22343
      ],
      [
        28.83516,
        40.22355
      ],
      [
        28.835305,
        40.223523
      ],
      [
        28.835305,
        40.223523
      ],
      [
        28.83516,
        40.22355
      ],
      [
        28.83546,
        40.22464
      ],
      [
        28.83559,
        40.22501
      ],
      [
        28.83572,
        40.22539
      ],
      [
        28.835847,
        40.225366
      ],
      [
        28.835847,
        40.225366
      ],
      [
        28.83572,
        40.22539
      ],
      [
        28.83596,
        40.22612
      ],
      [
        28.83618,
        40.22668
      ],
      [
        28.83621,
        40.22728
      ],
      [
        28.83632,
        40.227287
      ],
      [
        28.83632,
        40.227287
      ],
      [
        28.83621,
        40.22728
      ],
      [
        28.835581,
        40.227398
      ],
      [
        28.835247,
        40.227467
      ],
      [
        28.834802,
        40.227553
      ],
      [
        28.834387,
        40.22764
      ],
      [
        28.833846,
        40.227735
      ],
      [
        28.8327,
        40.227956
      ],
      [
        28.832431,
        40.228012
      ],
      [
        28.8325,
        40.22832
      ],
      [
        28.83257,
        40.22831
      ],
      [
        28.83257,
        40.22831
      ],
      [
        28.8325,
        40.22832
      ],
      [
        28.83275,
        40.22932
      ],
      [
        28.832832,
        40.229312
      ],
      [
        28.832832,
        40.229312
      ],
      [
        28.83275,
        40.22932
      ],
      [
        28.83324,
        40.23106
      ],
      [
        28.833329,
        40.231049
      ],
      [
        28.833329,
        40.231049
      ],
      [
        28.83324,
        40.23106
      ],
      [
        28.83374,
        40.23276
      ],
      [
        28.83421,
        40.23275
      ],
      [
        28.834206,
        40.232666
      ],
      [
        28.834206,
        40.232666
      ],
      [
        28.83421,
        40.23275
      ],
      [
        28.83539,
        40.23279
      ],
      [
        28.83633,
        40.23272
      ],
      [
        28.83672,
        40.23262
      ],
      [
        28.836706,
        40.23258
      ],
      [
        28.836706,
        40.23258
      ],
      [
        28.83672,
        40.23262
      ],
      [
        28.83767,
        40.23233
      ],
      [
        28.83797,
        40.23229
      ],
      [
        28.83802,
        40.232
      ],
      [
        28.83799,
        40.23198
      ],
      [
        28.837988,
        40.23198
      ],
      [
        28.837988,
        40.23198
      ],
      [
        28.83799,
        40.23198
      ],
      [
        28.83802,
        40.232
      ],
      [
        28.83807,
        40.23171
      ],
      [
        28.83804,
        40.23159
      ],
      [
        28.83826,
        40.23138
      ],
      [
        28.8384,
        40.23103
      ],
      [
        28.83855,
        40.23098
      ],
      [
        28.838524,
        40.230941
      ],
      [
        28.838524,
        40.230941
      ],
      [
        28.83855,
        40.23098
      ],
      [
        28.83873,
        40.23091
      ],
      [
        28.83878,
        40.23089
      ],
      [
        28.83888,
        40.2308
      ],
      [
        28.83893,
        40.23063
      ],
      [
        28.83895,
        40.23029
      ],
      [
        28.83905,
        40.23007
      ],
      [
        28.83915,
        40.2299
      ],
      [
        28.83926,
        40.22984
      ],
      [
        28.83941,
        40.22978
      ],
      [
        28.83948,
        40.2297
      ],
      [
        28.83961,
        40.22963
      ],
      [
        28.83961,
        40.22962
      ],
      [
        28.83961,
        40.22961
      ],
      [
        28.83962,
        40.2296
      ],
      [
        28.83965,
        40.22957
      ],
      [
        28.83973,
        40.22955
      ],
      [
        28.83981,
        40.22957
      ],
      [
        28.83982,
        40.22958
      ],
      [
        28.84005,
        40.2296
      ],
      [
        28.840065,
        40.229574
      ],
      [
        28.840065,
        40.229574
      ],
      [
        28.84005,
        40.2296
      ],
      [
        28.84016,
        40.22964
      ],
      [
        28.84042,
        40.22965
      ],
      [
        28.84092,
        40.22975
      ],
      [
        28.84113,
        40.22977
      ],
      [
        28.84178,
        40.22961
      ],
      [
        28.84217,
        40.22957
      ],
      [
        28.84229,
        40.2296
      ],
      [
        28.84249,
        40.22947
      ],
      [
        28.8425,
        40.22948
      ],
      [
        28.8425,
        40.22948
      ],
      [
        28.84249,
        40.22947
      ],
      [
        28.84302,
        40.22914
      ],
      [
        28.84349,
        40.22881
      ],
      [
        28.84421,
        40.22824
      ],
      [
        28.84424,
        40.22826
      ],
      [
        28.84424,
        40.22826
      ],
      [
        28.84421,
        40.22824
      ],
      [
        28.84472,
        40.22776
      ],
      [
        28.84523,
        40.22728
      ],
      [
        28.84519,
        40.2271
      ],
      [
        28.84517,
        40.22709
      ],
      [
        28.84515,
        40.22707
      ],
      [
        28.84512,
        40.22704
      ],
      [
        28.84511,
        40.22697
      ],
      [
        28.84513,
        40.22691
      ],
      [
        28.8452,
        40.22686
      ],
      [
        28.84529,
        40.22684
      ],
      [
        28.84533,
        40.22685
      ],
      [
        28.84536,
        40.22686
      ],
      [
        28.84583,
        40.22663
      ],
      [
        28.84599,
        40.22653
      ],
      [
        28.84598,
        40.22652
      ],
      [
        28.84598,
        40.22652
      ],
      [
        28.84599,
        40.22653
      ],
      [
        28.84618,
        40.22641
      ],
      [
        28.84702,
        40.22578
      ],
      [
        28.8478,
        40.22519
      ],
      [
        28.84791,
        40.22531
      ],
      [
        28.84817,
        40.22554
      ],
      [
        28.84824,
        40.2255
      ],
      [
        28.84824,
        40.2255
      ],
      [
        28.8482,
        40.22557
      ],
      [
        28.84828,
        40.22568
      ],
      [
        28.84833,
        40.22579
      ],
      [
        28.84836,
        40.22596
      ],
      [
        28.84837,
        40.22637
      ],
      [
        28.84838,
        40.22699
      ],
      [
        28.8484,
        40.22786
      ],
      [
        28.84843,
        40.22864
      ],
      [
        28.848563,
        40.228635
      ],
      [
        28.848563,
        40.228635
      ],
      [
        28.84843,
        40.22864
      ],
      [
        28.84842,
        40.22907
      ],
      [
        28.85076,
        40.22907
      ],
      [
        28.85181,
        40.22905
      ],
      [
        28.85222,
        40.22903
      ],
      [
        28.85221,
        40.22897
      ],
      [
        28.85221,
        40.22897
      ],
      [
        28.85222,
        40.22903
      ],
      [
        28.85318,
        40.22895
      ],
      [
        28.85369,
        40.22879
      ],
      [
        28.85454,
        40.22864
      ],
      [
        28.85685,
        40.22838
      ],
      [
        28.85777,
        40.22832
      ],
      [
        28.857761,
        40.228248
      ],
      [
        28.857761,
        40.228248
      ],
      [
        28.85777,
        40.22832
      ],
      [
        28.85842,
        40.22827
      ],
      [
        28.85862,
        40.22822
      ],
      [
        28.85874,
        40.22817
      ],
      [
        28.85879,
        40.22812
      ],
      [
        28.85883,
        40.22806
      ],
      [
        28.8589,
        40.22781
      ],
      [
        28.85901,
        40.22751
      ],
      [
        28.8592,
        40.2273
      ],
      [
        28.85945,
        40.22716
      ],
      [
        28.85969,
        40.22711
      ],
      [
        28.85995,
        40.22711
      ],
      [
        28.86044,
        40.22721
      ],
      [
        28.86122,
        40.22741
      ],
      [
        28.86125,
        40.227338
      ],
      [
        28.86125,
        40.227338
      ],
      [
        28.86122,
        40.22741
      ],
      [
        28.86221,
        40.22764
      ],
      [
        28.863,
        40.22788
      ],
      [
        28.86306,
        40.22743
      ],
      [
        28.86307,
        40.22712
      ],
      [
        28.86305,
        40.22692
      ],
      [
        28.86284,
        40.22633
      ],
      [
        28.86278,
        40.22626
      ],
      [
        28.86265,
        40.22596
      ],
      [
        28.862615,
        40.225967
      ],
      [
        28.862615,
        40.225967
      ],
      [
        28.86265,
        40.22596
      ],
      [
        28.86238,
        40.22534
      ],
      [
        28.86204,
        40.22469
      ],
      [
        28.86199,
        40.22456
      ],
      [
        28.86198,
        40.22446
      ],
      [
        28.86203,
        40.22431
      ],
      [
        28.86229,
        40.22386
      ],
      [
        28.86232,
        40.22373
      ],
      [
        28.86224,
        40.22274
      ],
      [
        28.86224,
        40.22262
      ],
      [
        28.862202,
        40.22262
      ],
      [
        28.862202,
        40.22262
      ],
      [
        28.86224,
        40.22262
      ],
      [
        28.86217,
        40.2216
      ],
      [
        28.86427,
        40.22279
      ],
      [
        28.864298,
        40.222758
      ],
      [
        28.864298,
        40.222758
      ],
      [
        28.86427,
        40.22279
      ],
      [
        28.86668,
        40.22416
      ],
      [
        28.866725,
        40.224111
      ],
      [
        28.866725,
        40.224111
      ],
      [
        28.86668,
        40.22416
      ],
      [
        28.86882,
        40.22535
      ],
      [
        28.86889,
        40.225282
      ],
      [
        28.86889,
        40.225282
      ],
      [
        28.86882,
        40.22535
      ],
      [
        28.87074,
        40.2264
      ],
      [
        28.87064,
        40.22752
      ],
      [
        28.87066,
        40.22781
      ],
      [
        28.87085,
        40.22866
      ],
      [
        28.87088,
        40.22874
      ],
      [
        28.87097,
        40.22885
      ],
      [
        28.87108,
        40.22896
      ],
      [
        28.87124,
        40.22907
      ],
      [
        28.87179,
        40.22951
      ],
      [
        28.87193,
        40.229405
      ],
      [
        28.87193,
        40.229405
      ],
      [
        28.87179,
        40.22951
      ],
      [
        28.87216,
        40.2298
      ],
      [
        28.87267,
        40.22987
      ],
      [
        28.87264,
        40.2295
      ],
      [
        28.87237,
        40.22784
      ],
      [
        28.87229,
        40.22737
      ],
      [
        28.87227,
        40.22737
      ],
      [
        28.87227,
        40.22737
      ],
      [
        28.87229,
        40.22737
      ],
      [
        28.87215,
        40.22627
      ],
      [
        28.87216,
        40.22618
      ],
      [
        28.87222,
        40.22608
      ],
      [
        28.87279,
        40.22538
      ],
      [
        28.873,
        40.2251
      ],
      [
        28.872935,
        40.225076
      ],
      [
        28.872935,
        40.225076
      ],
      [
        28.873,
        40.2251
      ],
      [
        28.87316,
        40.22488
      ],
      [
        28.87311,
        40.22447
      ],
      [
        28.87309,
        40.22441
      ],
      [
        28.87309,
        40.22436
      ],
      [
        28.87309,
        40.22431
      ],
      [
        28.873,
        40.22421
      ],
      [
        28.87282,
        40.22408
      ],
      [
        28.87251,
        40.22389
      ],
      [
        28.87092,
        40.22408
      ],
      [
        28.87093,
        40.22413
      ],
      [
        28.87093,
        40.22413
      ],
      [
        28.87092,
        40.22408
      ],
      [
        28.87041,
        40.22413
      ],
      [
        28.87029,
        40.2241
      ],
      [
        28.86985,
        40.22389
      ],
      [
        28.86927,
        40.22354
      ],
      [
        28.8679,
        40.22277
      ],
      [
        28.867839,
        40.222833
      ],
      [
        28.867839,
        40.222833
      ],
      [
        28.8679,
        40.22277
      ],
      [
        28.86728,
        40.22242
      ],
      [
        28.86699,
        40.22221
      ],
      [
        28.86697,
        40.22221
      ],
      [
        28.86692,
        40.22219
      ],
      [
        28.86685,
        40.22214
      ],
      [
        28.86682,
        40.22207
      ],
      [
        28.86684,
        40.222
      ],
      [
        28.86689,
        40.22195
      ],
      [
        28.86698,
        40.22192
      ],
      [
        28.86712,
        40.22179
      ],
      [
        28.86795,
        40.22088
      ],
      [
        28.86798,
        40.22085
      ],
      [
        28.86795,
        40.22083
      ],
      [
        28.86795,
        40.22083
      ],
      [
        28.86798,
        40.22085
      ],
      [
        28.86934,
        40.21933
      ],
      [
        28.86928,
        40.2193
      ],
      [
        28.86928,
        40.2193
      ],
      [
        28.86934,
        40.21933
      ],
      [
        28.86939,
        40.21925
      ],
      [
        28.86938,
        40.21924
      ],
      [
        28.86939,
        40.2192
      ],
      [
        28.86946,
        40.21914
      ],
      [
        28.86948,
        40.21914
      ],
      [
        28.86981,
        40.21875
      ],
      [
        28.86977,
        40.21864
      ],
      [
        28.86971,
        40.21861
      ],
      [
        28.86961,
        40.2186
      ],
      [
        28.86792,
        40.21873
      ],
      [
        28.867889,
        40.218524
      ],
      [
        28.867889,
        40.218524
      ]
    ]
  }
}